QIANFAN-73              
1 63159U 25046A   26003.60248836  .00000243  00000+0  35725-3 0  9992
2 63159  88.9782 317.7613 0016947  62.6286 297.6587 13.50984362 50362
QIANFAN-74              
1 63160U 25046B   26003.58590835  .00000245  00000+0  36138-3 0  9991
2 63160  88.9782 317.6518 0001958  70.8438 289.2925 13.50981343 50429
QIANFAN-75              
1 63161U 25046C   26003.57313483  .00000280  00000+0  41405-3 0  9995
2 63161  88.9783 317.8871 0018128  65.0822 295.2210 13.50987473 50294
QIANFAN-76              
1 63162U 25046D   26003.56978583  .00000244  00000+0  35907-3 0  9993
2 63162  88.9782 317.8679 0015687  65.8235 294.4554 13.50986665 50309
QIANFAN-77              
1 63163U 25046E   26003.61756588  .00000715  00000+0  51127-3 0  9994
2 63163  88.9783 315.6907 0015948  19.8641 340.3153 13.96110256 51505
QIANFAN-78              
1 63164U 25046F   26003.61068725  .00000264  00000+0  39005-3 0  9994
2 63164  88.9781 317.7275 0017076  67.6058 292.6900 13.50985262 50383
QIANFAN-79              
1 63165U 25046G   26003.56525591  .00000283  00000+0  41960-3 0  9992
2 63165  88.9785 317.8405 0016757  66.2062 294.0844 13.50987094 50321
QIANFAN-80              
1 63166U 25046H   26003.58180838  .00000270  00000+0  39949-3 0  9996
2 63166  88.9783 317.5451 0015738  69.9548 290.3295 13.50985149 50480
